start=new Date('2022-11-17T00:00:00.000Z').valueOf();
sats=[{"EPOCH":"2022-11-16T05:19:06.424032","CENTER_NAME":"EARTH","SITE":"AFETR","MEAN_MOTION_DOT":"0.00000176","RA_OF_ASC_NODE":"248.6293","SEMIMAJOR_AXIS":"6917.894","ARG_OF_PERICENTER":"18.1071","ELEMENT_SET_NO":"999","EPHEMERIS_TYPE":"0","APOAPSIS":"542.181","REV_AT_EPOCH":"5618","RCS_SIZE":"LARGE","MEAN_ELEMENT_THEORY":"SGP4","COUNTRY_CODE":"US","OBJECT_ID":"2021-104AA","NORAD_CAT_ID":"49432","PERIAPSIS":"537.337","REF_FRAME":"TEME","MEAN_MOTION_DDOT":"0.0000000000000","TLE_LINE1":"1 49432U 21104AA  22320.22160213  .00000176  00000-0  29181-4 0  9995","MEAN_MOTION":"15.08835546","BSTAR":"0.00002918100000","FILE":"3659788","MEAN_ANOMALY":"342.0045","OBJECT_NAME":"STARLINK-3158","TLE_LINE2":"2 49432  53.2152 248.6293 0003501  18.1071 342.0045 15.08835546 56186","LAUNCH_DATE":"2021-11-13","INCLINATION":"53.2152","GP_ID":"217972466","ECCENTRICITY":"0.00035010","TIME_SYSTEM":"UTC","CLASSIFICATION_TYPE":"U","PERIOD":"95.438","OBJECT_TYPE":"PAYLOAD","DECAY_DATE":null},{"ARG_OF_PERICENTER":"24.9220","ELEMENT_SET_NO":"999","EPHEMERIS_TYPE":"0","SEMIMAJOR_AXIS":"6917.882","APOAPSIS":"541.679","REV_AT_EPOCH":"5745","EPOCH":"2022-11-16T11:40:36.928992","RA_OF_ASC_NODE":"237.4494","SITE":"AFETR","CENTER_NAME":"EARTH","MEAN_MOTION_DOT":"0.00002947","PERIAPSIS":"537.816","MEAN_MOTION":"15.08839458","REF_FRAME":"TEME","MEAN_MOTION_DDOT":"0.0000000000000","TLE_LINE1":"1 49433U 21104AB  22320.48653853  .00002947  00000-0  20321-3 0  9995","MEAN_ELEMENT_THEORY":"SGP4","RCS_SIZE":"LARGE","COUNTRY_CODE":"US","NORAD_CAT_ID":"49433","OBJECT_ID":"2021-104AB","GP_ID":"217986287","INCLINATION":"53.2167","TLE_LINE2":"2 49433  53.2167 237.4494 0002792  24.9220 335.1907 15.08839458 57451","LAUNCH_DATE":"2021-11-13","ECCENTRICITY":"0.00027920","FILE":"3660401","BSTAR":"0.00020321000000","MEAN_ANOMALY":"335.1907","OBJECT_NAME":"STARLINK-3079","PERIOD":"95.438","OBJECT_TYPE":"PAYLOAD","DECAY_DATE":null,"TIME_SYSTEM":"UTC","CLASSIFICATION_TYPE":"U"},{"DECAY_DATE":null,"PERIOD":"95.437","OBJECT_TYPE":"PAYLOAD","TIME_SYSTEM":"UTC","CLASSIFICATION_TYPE":"U","ECCENTRICITY":"0.00028080","TLE_LINE2":"2 49434  53.2171 256.1296 0002808  30.9992 329.1165 15.08841478 57214","INCLINATION":"53.2171","LAUNCH_DATE":"2021-11-13","GP_ID":"218016207","MEAN_ANOMALY":"329.1165","OBJECT_NAME":"STARLINK-3134","BSTAR":"0.00006672900000","FILE":"3660705","REF_FRAME":"TEME","MEAN_MOTION_DDOT":"0.0000000000000","TLE_LINE1":"1 49434U 21104AC  22320.78277082  .00000774  00000-0  66729-4 0  9994","MEAN_MOTION":"15.08841478","PERIAPSIS":"537.798","COUNTRY_CODE":"US","OBJECT_ID":"2021-104AC","NORAD_CAT_ID":"49434","RCS_SIZE":"LARGE","MEAN_ELEMENT_THEORY":"SGP4","APOAPSIS":"541.683","REV_AT_EPOCH":"5721","SEMIMAJOR_AXIS":"6917.876","ARG_OF_PERICENTER":"30.9992","ELEMENT_SET_NO":"999","EPHEMERIS_TYPE":"0","CENTER_NAME":"EARTH","SITE":"AFETR","MEAN_MOTION_DOT":"0.00000774","RA_OF_ASC_NODE":"256.1296","EPOCH":"2022-11-16T18:47:11.398848"},{"DECAY_DATE":null,"PERIOD":"95.438","OBJECT_TYPE":"PAYLOAD","TIME_SYSTEM":"UTC","CLASSIFICATION_TYPE":"U","ECCENTRICITY":"0.00026130","GP_ID":"217973712","TLE_LINE2":"2 49435  53.2170 238.9116 0002613  36.2668 323.8500 15.08837321 56312","INCLINATION":"53.2170","LAUNCH_DATE":"2021-11-13","MEAN_ANOMALY":"323.8500","OBJECT_NAME":"STARLINK-3117","FILE":"3659788","BSTAR":"0.00006542000000","MEAN_MOTION":"15.08837321","REF_FRAME":"TEME","TLE_LINE1":"1 49435U 21104AD  22320.15996723  .00000753  00000-0  65420-4 0  9990","MEAN_MOTION_DDOT":"0.0000000000000","PERIAPSIS":"537.946","COUNTRY_CODE":"US","NORAD_CAT_ID":"49435","OBJECT_ID":"2021-104AD","MEAN_ELEMENT_THEORY":"SGP4","RCS_SIZE":"LARGE","APOAPSIS":"541.561","REV_AT_EPOCH":"5631","ARG_OF_PERICENTER":"36.2668","ELEMENT_SET_NO":"999","EPHEMERIS_TYPE":"0","SEMIMAJOR_AXIS":"6917.889","RA_OF_ASC_NODE":"238.9116","CENTER_NAME":"EARTH","SITE":"AFETR","MEAN_MOTION_DOT":"0.00000753","EPOCH":"2022-11-16T03:50:21.168672"},{"TIME_SYSTEM":"UTC","CLASSIFICATION_TYPE":"U","DECAY_DATE":null,"PERIOD":"95.436","OBJECT_TYPE":"PAYLOAD","MEAN_ANOMALY":"329.7877","OBJECT_NAME":"STARLINK-3049","FILE":"3659788","BSTAR":"0.00073591000000","ECCENTRICITY":"0.00023330","GP_ID":"217971966","TLE_LINE2":"2 49436  53.2173 238.3245 0002333  30.3250 329.7877 15.08857717 56339","LAUNCH_DATE":"2021-11-13","INCLINATION":"53.2173","COUNTRY_CODE":"US","OBJECT_ID":"2021-104AE","NORAD_CAT_ID":"49436","MEAN_ELEMENT_THEORY":"SGP4","RCS_SIZE":"LARGE","MEAN_MOTION":"15.08857717","REF_FRAME":"TEME","TLE_LINE1":"1 49436U 21104AE  22320.29149172  .00011449  00000-0  73591-3 0  9995","MEAN_MOTION_DDOT":"0.0000000000000","PERIAPSIS":"538.077","RA_OF_ASC_NODE":"238.3245","CENTER_NAME":"EARTH","SITE":"AFETR","MEAN_MOTION_DOT":"0.00011449","EPOCH":"2022-11-16T06:59:44.884608","APOAPSIS":"541.305","REV_AT_EPOCH":"5633","ARG_OF_PERICENTER":"30.3250","ELEMENT_SET_NO":"999","EPHEMERIS_TYPE":"0","SEMIMAJOR_AXIS":"6917.826"},{"INCLINATION":"53.2159","TLE_LINE2":"2 49437  53.2159 237.4714 0002802  27.8034 332.3107 15.08835528 56362","LAUNCH_DATE":"2021-11-13","GP_ID":"217972216","ECCENTRICITY":"0.00028020","BSTAR":"0.00004076600000","FILE":"3659788","OBJECT_NAME":"STARLINK-3130","MEAN_ANOMALY":"332.3107","OBJECT_TYPE":"PAYLOAD","PERIOD":"95.438","DECAY_DATE":null,"CLASSIFICATION_TYPE":"U","TIME_SYSTEM":"UTC","SEMIMAJOR_AXIS":"6917.894","EPHEMERIS_TYPE":"0","ARG_OF_PERICENTER":"27.8034","ELEMENT_SET_NO":"999","REV_AT_EPOCH":"5636","APOAPSIS":"541.697","EPOCH":"2022-11-16T11:35:18.768768","MEAN_MOTION_DOT":"0.00000360","SITE":"AFETR","CENTER_NAME":"EARTH","RA_OF_ASC_NODE":"237.4714","PERIAPSIS":"537.821","TLE_LINE1":"1 49437U 21104AF  22320.48285612  .00000360  00000-0  40766-4 0  9996","MEAN_MOTION_DDOT":"0.0000000000000","REF_FRAME":"TEME","MEAN_MOTION":"15.08835528","RCS_SIZE":"LARGE","MEAN_ELEMENT_THEORY":"SGP4","COUNTRY_CODE":"US","NORAD_CAT_ID":"49437","OBJECT_ID":"2021-104AF"},{"MEAN_ANOMALY":"325.7267","OBJECT_NAME":"STARLINK-3044","FILE":"3659788","BSTAR":"0.00015188000000","ECCENTRICITY":"0.00024030","GP_ID":"217972967","TLE_LINE2":"2 49438  53.2161 238.6770 0002403  34.3881 325.7267 15.08836851 56320","INCLINATION":"53.2161","LAUNCH_DATE":"2021-11-13","TIME_SYSTEM":"UTC","CLASSIFICATION_TYPE":"U","DECAY_DATE":null,"PERIOD":"95.438","OBJECT_TYPE":"PAYLOAD","RA_OF_ASC_NODE":"238.6770","SITE":"AFETR","CENTER_NAME":"EARTH","MEAN_MOTION_DOT":"0.00002130","EPOCH":"2022-11-16T05:08:28.356576","APOAPSIS":"541.417","REV_AT_EPOCH":"5632","ARG_OF_PERICENTER":"34.3881","ELEMENT_SET_NO":"999","EPHEMERIS_TYPE":"0","SEMIMAJOR_AXIS":"6917.890","NORAD_CAT_ID":"49438","COUNTRY_CODE":"US","OBJECT_ID":"2021-104AG","MEAN_ELEMENT_THEORY":"SGP4","RCS_SIZE":"LARGE","MEAN_MOTION":"15.08836851","REF_FRAME":"TEME","MEAN_MOTION_DDOT":"0.0000000000000","TLE_LINE1":"1 49438U 21104AG  22320.21421709  .00002130  00000-0  15188-3 0  9993","PERIAPSIS":"538.093"},{"DECAY_DATE":null,"OBJECT_TYPE":"PAYLOAD","PERIOD":"95.438","CLASSIFICATION_TYPE":"U","TIME_SYSTEM":"UTC","ECCENTRICITY":"0.00029970","GP_ID":"217921114","LAUNCH_DATE":"2021-11-13","TLE_LINE2":"2 49439  53.2158 238.7603 0002997  28.7405 331.3751 15.08827441 57417","INCLINATION":"53.2158","OBJECT_NAME":"STARLINK-3108","MEAN_ANOMALY":"331.3751","FILE":"3658501","BSTAR":"0.00003004500000","MEAN_MOTION":"15.08827441","MEAN_MOTION_DDOT":"0.0000000000000","TLE_LINE1":"1 49439U 21104AH  22320.19581555  .00000189  00000-0  30045-4 0  9999","REF_FRAME":"TEME","PERIAPSIS":"537.710","NORAD_CAT_ID":"49439","COUNTRY_CODE":"US","OBJECT_ID":"2021-104AH","MEAN_ELEMENT_THEORY":"SGP4","RCS_SIZE":"LARGE","REV_AT_EPOCH":"5741","APOAPSIS":"541.857","EPHEMERIS_TYPE":"0","ARG_OF_PERICENTER":"28.7405","ELEMENT_SET_NO":"999","SEMIMAJOR_AXIS":"6917.919","RA_OF_ASC_NODE":"238.7603","MEAN_MOTION_DOT":"0.00000189","CENTER_NAME":"EARTH","SITE":"AFETR","EPOCH":"2022-11-16T04:41:58.463520"},{"TIME_SYSTEM":"UTC","CLASSIFICATION_TYPE":"U","DECAY_DATE":null,"PERIOD":"95.437","OBJECT_TYPE":"PAYLOAD","MEAN_ANOMALY":"333.8667","OBJECT_NAME":"STARLINK-3105","FILE":"3659788","BSTAR":"0.00027397000000","ECCENTRICITY":"0.00029280","GP_ID":"217972467","LAUNCH_DATE":"2021-11-13","TLE_LINE2":"2 49440  53.2157 239.5894 0002928  26.2473 333.8667 15.08849430 56291","INCLINATION":"53.2157","COUNTRY_CODE":"US","NORAD_CAT_ID":"49440","OBJECT_ID":"2021-104AJ","MEAN_ELEMENT_THEORY":"SGP4","RCS_SIZE":"LARGE","MEAN_MOTION":"15.08849430","REF_FRAME":"TEME","TLE_LINE1":"1 49440U 21104AJ  22320.01181671  .00004076  00000-0  27397-3 0  9991","MEAN_MOTION_DDOT":"0.0000000000000","PERIAPSIS":"537.691","RA_OF_ASC_NODE":"239.5894","SITE":"AFETR","CENTER_NAME":"EARTH","MEAN_MOTION_DOT":"0.00004076","EPOCH":"2022-11-16T00:17:00.963744","APOAPSIS":"541.742","REV_AT_EPOCH":"5629","ARG_OF_PERICENTER":"26.2473","ELEMENT_SET_NO":"999","EPHEMERIS_TYPE":"0","SEMIMAJOR_AXIS":"6917.852"},{"TIME_SYSTEM":"UTC","CLASSIFICATION_TYPE":"U","DECAY_DATE":null,"PERIOD":"95.438","OBJECT_TYPE":"PAYLOAD","MEAN_ANOMALY":"339.1542","OBJECT_NAME":"STARLINK-3128","FILE":"3660705","BSTAR":"0.00019732000000","ECCENTRICITY":"0.00028200","GP_ID":"218016954","INCLINATION":"53.2152","TLE_LINE2":"2 49441  53.2152 236.3970 0002820  20.9566 339.1542 15.08832809 56408","LAUNCH_DATE":"2021-11-13","OBJECT_ID":"2021-104AK","COUNTRY_CODE":"US","NORAD_CAT_ID":"49441","MEAN_ELEMENT_THEORY":"SGP4","RCS_SIZE":"LARGE","MEAN_MOTION":"15.08832809","REF_FRAME":"TEME","TLE_LINE1":"1 49441U 21104AK  22320.72205009  .00002853  00000-0  19732-3 0  9997","MEAN_MOTION_DDOT":"0.0000000000000","PERIAPSIS":"537.817","RA_OF_ASC_NODE":"236.3970","CENTER_NAME":"EARTH","SITE":"AFETR","MEAN_MOTION_DOT":"0.00002853","EPOCH":"2022-11-16T17:19:45.127776","APOAPSIS":"541.718","REV_AT_EPOCH":"5640","ARG_OF_PERICENTER":"20.9566","ELEMENT_SET_NO":"999","EPHEMERIS_TYPE":"0","SEMIMAJOR_AXIS":"6917.902"}];
